LEMUR-1                 
1 40044U 14033AL  26202.17969479  .00001049  00000+0  12595-3 0  9995
2 40044  97.7916 351.2395 0047284 328.0179  31.8168 14.85348111650516
LEMUR-2-GREENBERG       
1 42837U 17042N   26202.18581904  .00012759  00000+0  41140-3 0  9992
2 42837  97.3842  22.6818 0007481 234.7479 125.3063 15.32272934493590
LEMUR-2-ANDIS           
1 42838U 17042P   26202.00358065  .00016171  00000+0  46171-3 0  9995
2 42838  97.3692  22.8067 0007539 233.9542 126.1004 15.36075973493646
LEMUR-2-MONSON          
1 42839U 17042Q   26202.00747074  .00010789  00000+0  38721-3 0  9999
2 42839  97.4103  22.4228 0005711 221.0699 139.0112 15.28852397493334
LEMUR-2-FURIAUS         
1 42840U 17042R   26202.00668472  .00012240  00000+0  40768-3 0  9993
2 42840  97.3789  20.3821 0005678 304.6433  55.4272 15.31249211493389
LEMUR-2-PETERG          
1 42841U 17042S   26202.07304801  .00015579  00000+0  45824-3 0  9990
2 42841  97.4006  27.1934 0003749 196.0980 164.0145 15.35169626493639
LEMUR-2-DEMBITZ         
1 42842U 17042T   26202.02652405  .00011274  00000+0  37611-3 0  9995
2 42842  97.3839  23.4497 0005231 247.5353 112.5335 15.31221020493520
LEMUR-2-ZACHARY         
1 42845U 17042W   26202.23827767  .00040411  00000+0  64470-3 0  9994
2 42845  97.3582  34.6701 0002984 218.6447 141.4593 15.53110374494481
LEMUR-2-AMANDA-SVANTE   
1 48269U 21034B   26202.18335423  .00025366  00000+0  71970-3 0  9998
2 48269  97.5741 281.4130 0004783 130.3042 229.8620 15.36198437286279
LEMUR-2-SPECIAL-K       
1 48273U 21034F   26201.79486637  .00222432  00000+0  13543-2 0  9997
2 48273  97.5625 291.3914 0006193 210.4851 149.6055 15.76795894286961
LEMUR-2-EMBRIONOVIS     
1 56970U 23084AQ  26201.90437231  .00010011  00000+0  26695-3 0  9997
2 56970  97.6332 347.4260 0008768 185.5549 174.5599 15.38325154172862
LEMUR-2-DEVERILL-M-T    
1 57391U 23100F   26202.07410524  .00020004  00000+0  48265-3 0  9999
2 57391  99.4448 250.6635 0004815 272.1205  87.9483 15.41278283166462
LEMUR-2-BASS            
1 58259U 23174D   26202.17798082  .00013311  00000+0  29239-3 0  9996
2 58259  97.3836 287.3900 0007234  60.2085 299.9882 15.44122446150605
LEMUR-2-JK0903EM1407    
1 58336U 23174CJ  26201.98179670  .00020980  00000+0  33440-3 0  9995
2 58336  97.3917 293.4451 0003009   9.0409 351.0898 15.53266939150970
LEMUR-2-MJR092620       
1 58340U 23174CN  26202.28037227  .00015386  00000+0  31688-3 0  9991
2 58340  97.3965 292.9656 0004741   7.5822 352.5498 15.46007697150917
LEMUR-2-NIMBUS2000      
1 58899U 24022A   26202.11193926  .00016730  00000+0  40331-3 0  9993
2 58899  97.4083  52.5660 0008116   7.9726 352.1648 15.41275158137495
LEMUR-2-VALHALLA        
1 58900U 24022B   26202.11929081  .00011964  00000+0  29564-3 0  9994
2 58900  97.4082  52.5373 0008598   3.2856 356.8445 15.40602327137492
LEMUR-2-CAEL            
1 58903U 24022E   26202.09962609  .00013353  00000+0  31515-3 0  9990
2 58903  97.4059  53.5148 0006535 347.0246  13.0832 15.41981340137567
LEMUR-2-JOHNNYTRUONG    
1 59146U 24043BA  26201.98089740  .00033688  00000+0  37364-3 0  9997
2 59146  97.5400 355.8471 0003744  76.5913 283.5762 15.62881702133318
LEMUR-2-TOMATOKECHUP    
1 60471U 24149D   26202.17067799  .00008094  00000+0  22832-3 0  9996
2 60471  97.3785 284.3180 0003443 111.4342 248.7269 15.36660114107385
LEMUR-2-STELLA          
1 60533U 24149BT  26202.02828261  .00007820  00000+0  45354-3 0  9998
2 60533  97.6727 284.6459 0001403 121.9887 238.1480 15.12444968105612
LEMUR-2-MARHISYAM       
1 60536U 24149BW  26202.15386185  .00006842  00000+0  40399-3 0  9996
2 60536  97.6870 285.2548 0002193  60.8251 299.3199 15.11845849105611
LEMUR-2-AHMED-ASRAR     
1 60576U 24149DN  26202.15433452  .00008023  00000+0  45323-3 0  9995
2 60576  97.6995 287.4822 0001723 180.4324 179.6905 15.13386023105701
LEMUR-2-LLOYD           
1 60577U 24149DP  26202.24606155  .00008025  00000+0  50011-3 0  9990
2 60577  97.6731 283.4059 0004190  55.5572 304.6053 15.09816837105537
LEMUR-2-SQUIRRELCOMM    
1 60578U 24149DQ  26201.77932695  .00003857  00000+0  25845-3 0  9994
2 60578  97.6699 282.5908 0004006 299.4293  60.6535 15.07479136105460
LEMUR-2-SIERRINI        
1 60579U 24149DR  26202.24998587  .00008801  00000+0  52195-3 0  9992
2 60579  97.6829 285.0069 0006061  74.5951 285.5948 15.11587709105601
LEMUR-2-WILSON          
1 62694U 25009CP  26202.15759560  .00001705  00000+0  15997-3 0  9999
2 62694  97.7015 280.0266 0001606 288.8228  71.2818 14.95291454 82431
LEMUR-2-STAR-FOX        
1 62696U 25009CR  26202.18575034  .00005773  00000+0  43477-3 0  9999
2 62696  97.6900 283.5498 0001583  17.9972 342.1308 15.02890489 82662
LEMUR-2-ARIANNA         
1 62699U 25009CU  26201.71814555  .00004862  00000+0  36687-3 0  9997
2 62699  97.6840 282.8336 0001909  29.6722 330.4611 15.02887787 82592
LEMUR-2-ALISIA          
1 62706U 25009DB  26202.15524690  .00005641  00000+0  42106-3 0  9992
2 62706  97.6959 284.1041 0004930 113.3141 246.8604 15.03227903105264
